{
    "links": {
        "self": "http://www.neowsapp.com/rest/v1/neo/54016735?api_key=iIulBulltgU6a56xZRHN4H3l9WmuAYTsLGpBGhQ2"
    },
    "id": "54016735",
    "neo_reference_id": "54016735",
    "name": "(2020 HP5)",
    "designation": "2020 HP5",
    "nasa_jpl_url": "http://ssd.jpl.nasa.gov/sbdb.cgi?sstr=54016735",
    "absolute_magnitude_h": 25.113,
    "estimated_diameter": {
        "kilometers": {
            "estimated_diameter_min": 0.0252321918,
            "estimated_diameter_max": 0.056420896
        },
        "meters": {
            "estimated_diameter_min": 25.232191763,
            "estimated_diameter_max": 56.4208960034
        },
        "miles": {
            "estimated_diameter_min": 0.0156785522,
            "estimated_diameter_max": 0.0350583086
        },
        "feet": {
            "estimated_diameter_min": 82.7827840237,
            "estimated_diameter_max": 185.1079324436
        }
    },
    "is_potentially_hazardous_asteroid": false,
    "close_approach_data": [
        {
            "close_approach_date": "2020-04-25",
            "close_approach_date_full": "2020-Apr-25 07:21",
            "epoch_date_close_approach": 1587799260000,
            "relative_velocity": {
                "kilometers_per_second": "15.6646701301",
                "kilometers_per_hour": "56392.8124683485",
                "miles_per_hour": "35040.3006140135"
            },
            "miss_distance": {
                "astronomical": "0.075758708",
                "lunar": "29.470137412",
                "kilometers": "11333341.35075196",
                "miles": "7042211.763658648"
            },
            "orbiting_body": "Earth"
        }
    ],
    "orbital_data": {
        "orbit_id": "3",
        "orbit_determination_date": "2020-04-29 06:53:47",
        "first_observation_date": "2020-04-22",
        "last_observation_date": "2020-04-29",
        "data_arc_in_days": 7,
        "observations_used": 36,
        "orbit_uncertainty": "8",
        "minimum_orbit_intersection": ".0733472",
        "jupiter_tisserand_invariant": "4.695",
        "epoch_osculation": "2458963.5",
        "eccentricity": ".248225572760312",
        "semi_major_axis": "1.35895710996694",
        "inclination": "28.98282345466246",
        "ascending_node_longitude": "37.69154918757376",
        "orbital_period": "578.6381347649116",
        "perihelion_distance": "1.021629202988698",
        "perihelion_argument": "135.6435703859455",
        "aphelion_distance": "1.696285016945182",
        "perihelion_time": "2458923.279215511650",
        "mean_anomaly": "25.02338084179106",
        "mean_motion": ".6221504915956851",
        "equinox": "J2000",
        "orbit_class": {
            "orbit_class_type": "AMO",
            "orbit_class_description": "Near-Earth asteroid orbits similar to that of 1221 Amor",
            "orbit_class_range": "1.017 AU < q (perihelion) < 1.3 AU"
        }
    },
    "is_sentry_object": false
}